{
    "links": {
        "self": "http://www.neowsapp.com/rest/v1/neo/54054366?api_key=iIulBulltgU6a56xZRHN4H3l9WmuAYTsLGpBGhQ2"
    },
    "id": "54054366",
    "neo_reference_id": "54054366",
    "name": "(2020 RX7)",
    "designation": "2020 RX7",
    "nasa_jpl_url": "http://ssd.jpl.nasa.gov/sbdb.cgi?sstr=54054366",
    "absolute_magnitude_h": 25.408,
    "estimated_diameter": {
        "kilometers": {
            "estimated_diameter_min": 0.022026981,
            "estimated_diameter_max": 0.0492538268
        },
        "meters": {
            "estimated_diameter_min": 22.0269809708,
            "estimated_diameter_max": 49.2538267897
        },
        "miles": {
            "estimated_diameter_min": 0.0136869272,
            "estimated_diameter_max": 0.0306048996
        },
        "feet": {
            "estimated_diameter_min": 72.2670002481,
            "estimated_diameter_max": 161.5939250848
        }
    },
    "is_potentially_hazardous_asteroid": false,
    "close_approach_data": [
        {
            "close_approach_date": "2020-09-26",
            "close_approach_date_full": "2020-Sep-26 12:45",
            "epoch_date_close_approach": 1601124300000,
            "relative_velocity": {
                "kilometers_per_second": "6.0050295887",
                "kilometers_per_hour": "21618.1065193691",
                "miles_per_hour": "13432.6506869935"
            },
            "miss_distance": {
                "astronomical": "0.0885767222",
                "lunar": "34.4563449358",
                "kilometers": "13250888.972701714",
                "miles": "8233720.6049390932"
            },
            "orbiting_body": "Earth"
        }
    ],
    "orbital_data": {
        "orbit_id": "4",
        "orbit_determination_date": "2020-09-24 08:26:32",
        "first_observation_date": "2020-09-10",
        "last_observation_date": "2020-09-23",
        "data_arc_in_days": 13,
        "observations_used": 24,
        "orbit_uncertainty": "8",
        "minimum_orbit_intersection": ".0842437",
        "jupiter_tisserand_invariant": "3.840",
        "epoch_osculation": "2459111.5",
        "eccentricity": ".4344198502276425",
        "semi_major_axis": "1.885066267833311",
        "inclination": "5.272116441702015",
        "ascending_node_longitude": "340.7133293381489",
        "orbital_period": "945.3407083835351",
        "perihelion_distance": "1.066156062091983",
        "perihelion_argument": "39.2983482385205",
        "aphelion_distance": "2.703976473574639",
        "perihelion_time": "2459132.958255631264",
        "mean_anomaly": "351.8283726081529",
        "mean_motion": ".3808150826547755",
        "equinox": "J2000",
        "orbit_class": {
            "orbit_class_type": "AMO",
            "orbit_class_description": "Near-Earth asteroid orbits similar to that of 1221 Amor",
            "orbit_class_range": "1.017 AU < q (perihelion) < 1.3 AU"
        }
    },
    "is_sentry_object": false
}